$$SOE
2460154.500000000, A.D. 2023-Jul-29 00:00:00.0000, 2.584095538918335E+08, -1.214291728382145E+08, -3.072934400734417E+06,
2460161.500000000, A.D. 2023-Aug-05 00:00:00.0000, 2.577228437931273E+08, -1.090663850398801E+08, -4.268404871615335E+06,
2460168.500000000, A.D. 2023-Aug-12 00:00:00.0000, 2.564652849409744E+08, -9.646223583612818E+07, -5.454393658183336E+06,
2460175.500000000, A.D. 2023-Aug-19 00:00:00.0000, 2.546026736563287E+08, -8.363076569141863E+07, -6.627483409488235E+06,
2460182.500000000, A.D. 2023-Aug-26 00:00:00.0000, 2.520982125851568E+08, -7.058875741116308E+07, -7.783829923156638E+06,
2460189.500000000, A.D. 2023-Sep-02 00:00:00.0000, 2.489123230101965E+08, -5.735628843013304E+07, -8.919095852943707E+06,
2460196.500000000, A.D. 2023-Sep-09 00:00:00.0000, 2.450024706769541E+08, -4.395739931596199E+07, -1.002837361903069E+07,
2460203.500000000, A.D. 2023-Sep-16 00:00:00.0000, 2.403230215503381E+08, -3.042090326405461E+07, -1.110609604155463E+07,
2460210.500000000, A.D. 2023-Sep-23 00:00:00.0000, 2.348251523089616E+08, -1.678136532774845E+07, -1.214593326025639E+07,
2460217.500000000, A.D. 2023-Sep-30 00:00:00.0000, 2.284568513206598E+08, -3.080283414470872E+06, -1.314067461909001E+07,
2460224.500000000, A.D. 2023-Oct-07 00:00:00.0000, 2.211630603517458E+08, 1.063249195449681E+07, -1.408209479295487E+07,
2460231.500000000, A.D. 2023-Oct-14 00:00:00.0000, 2.128860335723406E+08, 2.429705881113859E+07, -1.496080526018276E+07,
2460238.500000000, A.D. 2023-Oct-21 00:00:00.0000, 2.035660239475938E+08, 3.784145557784705E+07, -1.576609436484869E+07,
2460245.500000000, A.D. 2023-Oct-28 00:00:00.0000, 1.931424441032546E+08, 5.117932961423386E+07, -1.648576274596052E+07,
2460252.500000000, A.D. 2023-Nov-04 00:00:00.0000, 1.815557015621362E+08, 6.420729957401288E+07, -1.710596770258448E+07,
2460259.500000000, A.D. 2023-Nov-11 00:00:00.0000, 1.687499710518651E+08, 7.680209363021457E+07, -1.761110029179192E+07,
2460266.500000000, A.D. 2023-Nov-18 00:00:00.0000, 1.546772279174056E+08, 8.881765876671037E+07, -1.798373378544841E+07,
2460273.500000000, A.D. 2023-Nov-25 00:00:00.0000, 1.393029058759497E+08, 1.000826175654990E+08, -1.820470250791026E+07,
2460280.500000000, A.D. 2023-Dec-02 00:00:00.0000, 1.226135156189150E+08, 1.103987165337572E+08, -1.825339524852756E+07,
2460287.500000000, A.D. 2023-Dec-09 00:00:00.0000, 1.046263923213434E+08, 1.195412622885101E+08, -1.810837274215135E+07,
2460294.500000000, A.D. 2023-Dec-16 00:00:00.0000, 8.540132248879483E+07, 1.272629232630360E+08, -1.774843223233163E+07,
2460301.500000000, A.D. 2023-Dec-23 00:00:00.0000, 6.505302515850345E+07, 1.333025250540120E+08, -1.715422140926210E+07,
2460308.500000000, A.D. 2023-Dec-30 00:00:00.0000, 4.376231268899933E+07, 1.374002792825392E+08, -1.631041741179176E+07,
2460315.500000000, A.D. 2024-Jan-06 00:00:00.0000, 2.178248280163824E+07, 1.393198474253585E+08, -1.520830832671733E+07,
2460322.500000000, A.D. 2024-Jan-13 00:00:00.0000, -5.632274201685175E+05, 1.388754980465417E+08, -1.384835806587704E+07,
2460329.500000000, A.D. 2024-Jan-20 00:00:00.0000, -2.289648184531807E+07, 1.359597176430302E+08, -1.224209280185388E+07,
2460336.500000000, A.D. 2024-Jan-27 00:00:00.0000, -4.481131564124584E+07, 1.305642964266418E+08, -1.041259146610708E+07,
2460343.500000000, A.D. 2024-Feb-03 00:00:00.0000, -6.590999024777102E+07, 1.227880154993329E+08, -8.393143431710340E+06,
2460350.500000000, A.D. 2024-Feb-10 00:00:00.0000, -8.583913281200977E+07, 1.128275671097686E+08, -6.224213885842450E+06,
2460357.500000000, A.D. 2024-Feb-17 00:00:00.0000, -1.043174662056375E+08, 1.009539138453899E+08, -3.949449733203657E+06,
2460364.500000000, A.D. 2024-Feb-24 00:00:00.0000, -1.211496860415280E+08, 8.748088396748833E+07, -1.611726348497704E+06,
2460371.500000000, A.D. 2024-Mar-02 00:00:00.0000, -1.362261221842800E+08, 7.273403099177811E+07, 7.499430689800754E+05,
2460378.500000000, A.D. 2024-Mar-09 00:00:00.0000, -1.495118866755857E+08, 5.702569966799400E+07, 3.102266017933667E+06,
2460385.500000000, A.D. 2024-Mar-16 00:00:00.0000, -1.610307099972442E+08, 4.063872818415495E+07, 5.418359457935812E+06,
2460392.500000000, A.D. 2024-Mar-23 00:00:00.0000, -1.708479072319982E+08, 2.381830421432779E+07, 7.677563779228090E+06,
2460399.500000000, A.D. 2024-Mar-30 00:00:00.0000, -1.790552467639213E+08, 6.770045579392439E+06, 9.864737274292557E+06,
2460406.500000000, A.D. 2024-Apr-06 00:00:00.0000, -1.857589445686270E+08, -1.033793480921601E+07, 1.196933747782332E+07,
2460413.500000000, A.D. 2024-Apr-13 00:00:00.0000, -1.910709133886677E+08, -2.737088567527839E+07, 1.398448999720756E+07,
2460420.500000000, A.D. 2024-Apr-20 00:00:00.0000, -1.951028262405561E+08, -4.422252242643622E+07, 1.590614980276103E+07,
2460427.500000000, A.D. 2024-Apr-27 00:00:00.0000, -1.979623696648501E+08, -6.081017535082726E+07, 1.773239621045424E+07,
2460434.500000000, A.D. 2024-May-04 00:00:00.0000, -1.997510840475335E+08, -7.707038759104337E+07, 1.946286618255927E+07,
2460441.500000000, A.D. 2024-May-11 00:00:00.0000, -2.005632938194150E+08, -9.295512288245842E+07, 2.109831259980141E+07,
2460448.500000000, A.D. 2024-May-18 00:00:00.0000, -2.004857515260255E+08, -1.084286034217024E+08, 2.264026743866951E+07,
2460455.500000000, A.D. 2024-May-25 00:00:00.0000, -1.995977270489245E+08, -1.234647285804493E+08, 2.409078913595808E+07,
2460462.500000000, A.D. 2024-Jun-01 00:00:00.0000, -1.979713576575507E+08, -1.380449971101158E+08, 2.545227556630467E+07,
2460469.500000000, A.D. 2024-Jun-08 00:00:00.0000, -1.956721364957798E+08, -1.521568499734207E+08, 2.672732714652405E+07,
2460476.500000000, A.D. 2024-Jun-15 00:00:00.0000, -1.927594606726338E+08, -1.657923559593685E+08, 2.791864774045607E+07,
2460483.500000000, A.D. 2024-Jun-22 00:00:00.0000, -1.892871913468615E+08, -1.789471716735049E+08, 2.902897397620557E+07,
2460490.500000000, A.D. 2024-Jun-29 00:00:00.0000, -1.853041991473434E+08, -1.916197215585679E+08, 3.006102571646650E+07,
2460497.500000000, A.D. 2024-Jul-06 00:00:00.0000, -1.808548764190384E+08, -2.038105546533236E+08, 3.101747173140890E+07,
2460504.500000000, A.D. 2024-Jul-13 00:00:00.0000, -1.759796066970191E+08, -2.155218385555820E+08, 3.190090650951343E+07,
2460511.500000000, A.D. 2024-Jul-20 00:00:00.0000, -1.707151908290251E+08, -2.267569602793230E+08, 3.271383541916152E+07,
2460518.500000000, A.D. 2024-Jul-27 00:00:00.0000, -1.650952308706537E+08, -2.375202119437940E+08, 3.345866593007475E+07,
2460525.500000000, A.D. 2024-Aug-03 00:00:00.0000, -1.591504736615265E+08, -2.478165435657816E+08, 3.413770315670160E+07,
2460532.500000000, A.D. 2024-Aug-10 00:00:00.0000, -1.529091169796250E+08, -2.576513687552224E+08, 3.475314846753200E+07,
2460539.500000000, A.D. 2024-Aug-17 00:00:00.0000, -1.463970816558223E+08, -2.670304121507022E+08, 3.530710024679001E+07,
2460546.500000000, A.D. 2024-Aug-24 00:00:00.0000, -1.396382530981745E+08, -2.759595898683627E+08, 3.580155613568996E+07,
2460553.500000000, A.D. 2024-Aug-31 00:00:00.0000, -1.326546954515277E+08, -2.844449161490602E+08, 3.623841624773702E+07,
2460560.500000000, A.D. 2024-Sep-07 00:00:00.0000, -1.254668411376553E+08, -2.924924306654200E+08, 3.661948697752468E+07,
2460567.500000000, A.D. 2024-Sep-14 00:00:00.0000, -1.180936585288296E+08, -3.001081412230552E+08, 3.694648521709879E+07,
2460574.500000000, A.D. 2024-Sep-21 00:00:00.0000, -1.105528023341552E+08, -3.072979780623186E+08, 3.722104301099618E+07,
2460581.500000000, A.D. 2024-Sep-28 00:00:00.0000, -1.028607494498332E+08, -3.140677603059135E+08, 3.744471229360607E+07,
2460588.500000000, A.D. 2024-Oct-05 00:00:00.0000, -9.503291859831983E+07, -3.204231724287534E+08, 3.761896927530783E+07,
2460595.500000000, A.D. 2024-Oct-12 00:00:00.0000, -8.708377587281519E+07, -3.263697460956923E+08, 3.774521868959759E+07,
2460602.500000000, A.D. 2024-Oct-19 00:00:00.0000, -7.902692948643157E+07, -3.319128463136672E+08, 3.782479800014208E+07,
2460609.500000000, A.D. 2024-Oct-26 00:00:00.0000, -7.087521512438785E+07, -3.370576616436913E+08, 3.785898148236801E+07,
2460616.500000000, A.D. 2024-Nov-02 00:00:00.0000, -6.264077284118120E+07, -3.418091977709267E+08, 3.784898413061011E+07,
2460623.500000000, A.D. 2024-Nov-09 00:00:00.0000, -5.433511645280764E+07, -3.461722737266566E+08, 3.779596537652043E+07,
2460630.500000000, A.D. 2024-Nov-16 00:00:00.0000, -4.596919631102175E+07, -3.501515202130392E+08, 3.770103261477613E+07,
2460637.500000000, A.D. 2024-Nov-23 00:00:00.0000, -3.755345621232953E+07, -3.537513796429657E+08, 3.756524453099231E+07,
2460644.500000000, A.D. 2024-Nov-30 00:00:00.0000, -2.909788493611940E+07, -3.569761075879943E+08, 3.738961421581407E+07,
2460651.500000000, A.D. 2024-Dec-07 00:00:00.0000, -2.061206261074788E+07, -3.598297749338841E+08, 3.717511206958714E+07,
2460658.500000000, A.D. 2024-Dec-14 00:00:00.0000, -1.210520314123173E+07, -3.623162692958688E+08, 3.692266867048641E+07,
2460665.500000000, A.D. 2024-Dec-21 00:00:00.0000, -3.586195498309331E+06, -3.644392967548009E+08, 3.663317772757056E+07,
2460672.500000000, A.D. 2024-Dec-28 00:00:00.0000, 4.936357678550384E+06, -3.662023867394508E+08, 3.630749870604335E+07,
2460679.500000000, A.D. 2025-Jan-04 00:00:00.0000, 1.345410638344358E+07, -3.676088975700976E+08, 3.594645909242515E+07,
2460686.500000000, A.D. 2025-Jan-11 00:00:00.0000, 2.195892229163692E+07, -3.686620209198378E+08, 3.555085661444321E+07,
2460693.500000000, A.D. 2025-Jan-18 00:00:00.0000, 3.044286933154549E+07, -3.693647860472490E+08, 3.512146143646051E+07,
2460700.500000000, A.D. 2025-Jan-25 00:00:00.0000, 3.889817575077010E+07, -3.697200642257419E+08, 3.465901828083850E+07,
2460707.500000000, A.D. 2025-Feb-01 00:00:00.0000, 4.731720761758438E+07, -3.697305733638059E+08, 3.416424846657178E+07,
2460714.500000000, A.D. 2025-Feb-08 00:00:00.0000, 5.569244359060717E+07, -3.693988827714823E+08, 3.363785187219264E+07,
2460721.500000000, A.D. 2025-Feb-15 00:00:00.0000, 6.401645077959550E+07, -3.687274180784026E+08, 3.308050882931408E+07,
$$EOE